MONOLITH                
1 49052U 21068A   26068.54548855  .00008348  00000+0  53656-3 0  9993
2 49052  37.0220 141.2957 0002679 131.6464 228.4511 15.08010119252226
STARLINK-4023           
1 53135U 22083D   26068.61578867  .00002820  00000+0  19520-3 0  9993
2 53135  53.2153 174.4516 0001216  86.8349 273.2782 15.08835236202190
